CCSDS_OMM_VERS = 2.0
CREATION_DATE  = 
ORIGINATOR     = 

OBJECT_NAME    = ERS-1
OBJECT_ID      = 1991-050A
CENTER_NAME    = EARTH
REF_FRAME      = TEME
TIME_SYSTEM    = UTC
MEAN_ELEMENT_THEORY = SGP/SGP4

EPOCH          = 2026-03-26T12:27:15.718752
MEAN_MOTION    = 14.39461613
ECCENTRICITY   = .0032573
INCLINATION    = 98.7869
RA_OF_ASC_NODE = 104.1758
ARG_OF_PERICENTER = 150.6960
MEAN_ANOMALY   = 209.6062

EPHEMERIS_TYPE = 0
CLASSIFICATION_TYPE = U
NORAD_CAT_ID   = 21574
ELEMENT_SET_NO = 999
REV_AT_EPOCH   = 81815
BSTAR          = .10977E-3
MEAN_MOTION_DOT = .298E-5
MEAN_MOTION_DDOT = 0

CCSDS_OMM_VERS = 2.0
CREATION_DATE  = 
ORIGINATOR     = 

OBJECT_NAME    = ARIANE 40 R/B
OBJECT_ID      = 1991-050F
CENTER_NAME    = EARTH
REF_FRAME      = TEME
TIME_SYSTEM    = UTC
MEAN_ELEMENT_THEORY = SGP/SGP4

EPOCH          = 2026-03-26T17:42:32.876928
MEAN_MOTION    = 14.42905564
ECCENTRICITY   = .0003651
INCLINATION    = 98.1977
RA_OF_ASC_NODE = 137.3317
ARG_OF_PERICENTER = 42.8634
MEAN_ANOMALY   = 317.2841

EPHEMERIS_TYPE = 0
CLASSIFICATION_TYPE = U
NORAD_CAT_ID   = 21610
ELEMENT_SET_NO = 999
REV_AT_EPOCH   = 82145
BSTAR          = .96621E-4
MEAN_MOTION_DOT = .281E-5
MEAN_MOTION_DDOT = 0

CCSDS_OMM_VERS = 2.0
CREATION_DATE  = 
ORIGINATOR     = 

OBJECT_NAME    = INTERCOSMOS 25
OBJECT_ID      = 1991-086A
CENTER_NAME    = EARTH
REF_FRAME      = TEME
TIME_SYSTEM    = UTC
MEAN_ELEMENT_THEORY = SGP/SGP4

EPOCH          = 2026-03-26T13:55:12.482976
MEAN_MOTION    = 12.12055207
ECCENTRICITY   = .1486615
INCLINATION    = 82.6019
RA_OF_ASC_NODE = 299.7977
ARG_OF_PERICENTER = 80.5409
MEAN_ANOMALY   = 296.0044

EPHEMERIS_TYPE = 0
CLASSIFICATION_TYPE = U
NORAD_CAT_ID   = 21819
ELEMENT_SET_NO = 999
REV_AT_EPOCH   = 49873
BSTAR          = .25958E-3
MEAN_MOTION_DOT = .1361E-4
MEAN_MOTION_DDOT = 0

CCSDS_OMM_VERS = 2.0
CREATION_DATE  = 
ORIGINATOR     = 

OBJECT_NAME    = SL-8 R/B
OBJECT_ID      = 1992-008B
CENTER_NAME    = EARTH
REF_FRAME      = TEME
TIME_SYSTEM    = UTC
MEAN_ELEMENT_THEORY = SGP/SGP4

EPOCH          = 2026-03-26T21:25:50.863584
MEAN_MOTION    = 13.75969571
ECCENTRICITY   = .0035975
INCLINATION    = 82.9229
RA_OF_ASC_NODE = 254.9771
ARG_OF_PERICENTER = 86.9205
MEAN_ANOMALY   = 23.3391

EPHEMERIS_TYPE = 0
CLASSIFICATION_TYPE = U
NORAD_CAT_ID   = 21876
ELEMENT_SET_NO = 999
REV_AT_EPOCH   = 71178
BSTAR          = .15606E-4
MEAN_MOTION_DOT = .31E-6
MEAN_MOTION_DDOT = 0

CCSDS_OMM_VERS = 2.0
CREATION_DATE  = 
ORIGINATOR     = 

OBJECT_NAME    = SL-8 R/B
OBJECT_ID      = 1992-020B
CENTER_NAME    = EARTH
REF_FRAME      = TEME
TIME_SYSTEM    = UTC
MEAN_ELEMENT_THEORY = SGP/SGP4

EPOCH          = 2026-03-26T09:53:24.989856
MEAN_MOTION    = 13.75550460
ECCENTRICITY   = .0027679
INCLINATION    = 82.9309
RA_OF_ASC_NODE = 141.3460
ARG_OF_PERICENTER = 249.8780
MEAN_ANOMALY   = 121.0421

EPHEMERIS_TYPE = 0
CLASSIFICATION_TYPE = U
NORAD_CAT_ID   = 21938
ELEMENT_SET_NO = 999
REV_AT_EPOCH   = 70343
BSTAR          = .13639E-4
MEAN_MOTION_DOT = .28E-6
MEAN_MOTION_DDOT = 0

CCSDS_OMM_VERS = 2.0
CREATION_DATE  = 
ORIGINATOR     = 

OBJECT_NAME    = USA 81
OBJECT_ID      = 1992-023A
CENTER_NAME    = EARTH
REF_FRAME      = TEME
TIME_SYSTEM    = UTC
MEAN_ELEMENT_THEORY = SGP/SGP4

EPOCH          = 2026-03-26T13:32:39.122880
MEAN_MOTION    = 14.32373245
ECCENTRICITY   = .0001874
INCLINATION    = 85.0051
RA_OF_ASC_NODE = 121.7033
ARG_OF_PERICENTER = 68.1594
MEAN_ANOMALY   = 291.9798

EPHEMERIS_TYPE = 0
CLASSIFICATION_TYPE = U
NORAD_CAT_ID   = 21949
ELEMENT_SET_NO = 999
REV_AT_EPOCH   = 9720
BSTAR          = .52994E-4
MEAN_MOTION_DOT = .163E-5
MEAN_MOTION_DDOT = 0

CCSDS_OMM_VERS = 2.0
CREATION_DATE  = 
ORIGINATOR     = 

OBJECT_NAME    = COSMOS 2219
OBJECT_ID      = 1992-076A
CENTER_NAME    = EARTH
REF_FRAME      = TEME
TIME_SYSTEM    = UTC
MEAN_ELEMENT_THEORY = SGP/SGP4

EPOCH          = 2026-03-26T22:08:28.396896
MEAN_MOTION    = 14.14091479
ECCENTRICITY   = .0018012
INCLINATION    = 71.0627
RA_OF_ASC_NODE = 342.0476
ARG_OF_PERICENTER = 181.9265
MEAN_ANOMALY   = 178.1792

EPHEMERIS_TYPE = 0
CLASSIFICATION_TYPE = U
NORAD_CAT_ID   = 22219
ELEMENT_SET_NO = 999
REV_AT_EPOCH   = 72081
BSTAR          = -.9825E-4
MEAN_MOTION_DOT = -.234E-5
MEAN_MOTION_DDOT = 0

CCSDS_OMM_VERS = 2.0
CREATION_DATE  = 
ORIGINATOR     = 

OBJECT_NAME    = SL-16 R/B
OBJECT_ID      = 1992-076B
CENTER_NAME    = EARTH
REF_FRAME      = TEME
TIME_SYSTEM    = UTC
MEAN_ELEMENT_THEORY = SGP/SGP4

EPOCH          = 2026-03-26T15:50:47.825664
MEAN_MOTION    = 14.16863960
ECCENTRICITY   = .0010653
INCLINATION    = 71.0001
RA_OF_ASC_NODE = 152.6285
ARG_OF_PERICENTER = 64.5773
MEAN_ANOMALY   = 97.4300

EPHEMERIS_TYPE = 0
CLASSIFICATION_TYPE = U
NORAD_CAT_ID   = 22220
ELEMENT_SET_NO = 999
REV_AT_EPOCH   = 72423
BSTAR          = .23477E-4
MEAN_MOTION_DOT = -.1E-7
MEAN_MOTION_DDOT = 0

CCSDS_OMM_VERS = 2.0
CREATION_DATE  = 
ORIGINATOR     = 

OBJECT_NAME    = COSMOS 2221
OBJECT_ID      = 1992-080A
CENTER_NAME    = EARTH
REF_FRAME      = TEME
TIME_SYSTEM    = UTC
MEAN_ELEMENT_THEORY = SGP/SGP4

EPOCH          = 2026-03-26T21:23:41.345664
MEAN_MOTION    = 14.96269448
ECCENTRICITY   = .0015395
INCLINATION    = 82.5007
RA_OF_ASC_NODE = 262.5983
ARG_OF_PERICENTER = 131.4419
MEAN_ANOMALY   = 228.8128

EPHEMERIS_TYPE = 0
CLASSIFICATION_TYPE = U
NORAD_CAT_ID   = 22236
ELEMENT_SET_NO = 999
REV_AT_EPOCH   = 78336
BSTAR          = .21568E-3
MEAN_MOTION_DOT = .2466E-4
MEAN_MOTION_DDOT = 0

CCSDS_OMM_VERS = 2.0
CREATION_DATE  = 
ORIGINATOR     = 

OBJECT_NAME    = SL-16 R/B
OBJECT_ID      = 1992-093B
CENTER_NAME    = EARTH
REF_FRAME      = TEME
TIME_SYSTEM    = UTC
MEAN_ELEMENT_THEORY = SGP/SGP4

EPOCH          = 2026-03-26T21:53:46.061952
MEAN_MOTION    = 14.15453508
ECCENTRICITY   = .0006437
INCLINATION    = 71.0232
RA_OF_ASC_NODE = 328.1136
ARG_OF_PERICENTER = 276.8392
MEAN_ANOMALY   = 83.1998

EPHEMERIS_TYPE = 0
CLASSIFICATION_TYPE = U
NORAD_CAT_ID   = 22285
ELEMENT_SET_NO = 999
REV_AT_EPOCH   = 71559
BSTAR          = .16174E-3
MEAN_MOTION_DOT = .268E-5
MEAN_MOTION_DDOT = 0

CCSDS_OMM_VERS = 2.0
CREATION_DATE  = 
ORIGINATOR     = 

OBJECT_NAME    = COSMOS 2228
OBJECT_ID      = 1992-094A
CENTER_NAME    = EARTH
REF_FRAME      = TEME
TIME_SYSTEM    = UTC
MEAN_ELEMENT_THEORY = SGP/SGP4

EPOCH          = 2026-03-26T19:54:27.946368
MEAN_MOTION    = 14.97275210
ECCENTRICITY   = .0016739
INCLINATION    = 82.5183
RA_OF_ASC_NODE = 220.8990
ARG_OF_PERICENTER = 241.9796
MEAN_ANOMALY   = 117.9734

EPHEMERIS_TYPE = 0
CLASSIFICATION_TYPE = U
NORAD_CAT_ID   = 22286
ELEMENT_SET_NO = 999
REV_AT_EPOCH   = 77862
BSTAR          = .21848E-3
MEAN_MOTION_DOT = .2563E-4
MEAN_MOTION_DDOT = 0

CCSDS_OMM_VERS = 2.0
CREATION_DATE  = 
ORIGINATOR     = 

OBJECT_NAME    = SL-16 R/B
OBJECT_ID      = 1993-016B
CENTER_NAME    = EARTH
REF_FRAME      = TEME
TIME_SYSTEM    = UTC
MEAN_ELEMENT_THEORY = SGP/SGP4

EPOCH          = 2026-03-26T16:07:19.549056
MEAN_MOTION    = 14.15305436
ECCENTRICITY   = .0012341
INCLINATION    = 71.0078
RA_OF_ASC_NODE = 179.5163
ARG_OF_PERICENTER = 292.2002
MEAN_ANOMALY   = 67.7812

EPHEMERIS_TYPE = 0
CLASSIFICATION_TYPE = U
NORAD_CAT_ID   = 22566
ELEMENT_SET_NO = 999
REV_AT_EPOCH   = 70457
BSTAR          = -.37174E-4
MEAN_MOTION_DOT = -.12E-5
MEAN_MOTION_DDOT = 0

